{"type": "FeatureCollection", "features": [ {"type": "Feature", "properties": {"norad_id": 39620, "name": "COSMOS 2492 (754)", "group": "gnss", "lat": -39.69983935118937, "lon": 162.78553099372294, "alt_km": 19132.423063799426, "timestamp": "2025-12-07T05:38:10.147041+00:00", "meta": {"OBJECT_NAME": "COSMOS 2492 (754)", "OBJECT_ID": "2014-012A", "EPOCH": "2025-12-02T17:14:30.403680", "MEAN_MOTION": 2.13103072, "ECCENTRICITY": 0.00141646, "INCLINATION": 65.4134, "RA_OF_ASC_NODE": 320.6107, "ARG_OF_PERICENTER": 311.0276, "MEAN_ANOMALY": 48.8557, "EPHEMERIS_TYPE": 0, "CLASSIFICATION_TYPE": "U", "NORAD_CAT_ID": 39620, "ELEMENT_SET_NO": 999, "REV_AT_EPOCH": 9105, "BSTAR": 0, "MEAN_MOTION_DOT": -3.6e-07, "MEAN_MOTION_DDOT": 0}, "tle": {"line1": "1 39620U 14012A   25336.71840745 -.00000036  00000+0  00000+0 0  9991", "line2": "2 39620  65.4134 320.6107 0014164 311.0276  48.8557  2.13103072 91051"}}, "geometry": {"type": "Point", "coordinates": [162.78553099372294, -39.69983935118937]}}, {"type": "Feature", "properties": {"norad_id": 39635, "name": "IRNSS-1B", "group": "gnss", "lat": -13.005069455237143, "lon": -141.04766667270283, "alt_km": 35850.275259653994, "timestamp": "2025-12-07T05:38:10.147053+00:00", "meta": {"OBJECT_NAME": "IRNSS-1B", "OBJECT_ID": "2014-017A", "EPOCH": "2025-12-04T19:28:38.496288", "MEAN_MOTION": 1.00275997, "ECCENTRICITY": 0.0017633, "INCLINATION": 28.8387, "RA_OF_ASC_NODE": 243.7276, "ARG_OF_PERICENTER": 183.5453, "MEAN_ANOMALY": 353.8193, "EPHEMERIS_TYPE": 0, "CLASSIFICATION_TYPE": "U", "NORAD_CAT_ID": 39635, "ELEMENT_SET_NO": 999, "REV_AT_EPOCH": 4284, "BSTAR": 0, "MEAN_MOTION_DOT": 1.26e-06, "MEAN_MOTION_DDOT": 0}, "tle": {"line1": "1 39635U 14017A   25338.81155667  .00000126  00000+0  00000+0 0  9996", "line2": "2 39635  28.8387 243.7276 0017633 183.5453 353.8193  1.00275997 42844"}}, "geometry": {"type": "Point", "coordinates": [-141.04766667270283, -13.005069455237143]}}, {"type": "Feature", "properties": {"norad_id": 39727, "name": "LUCH 5V (SDCM/PRN 141)", "group": "gnss", "lat": -0.34708557169311727, "lon": -104.44985563341487, "alt_km": 35767.91877331149, "timestamp": "2025-12-07T05:38:10.147064+00:00", "meta": {"OBJECT_NAME": "LUCH 5V (SDCM/PRN 141)", "OBJECT_ID": "2014-023A", "EPOCH": "2025-12-06T07:16:03.844992", "MEAN_MOTION": 1.00270891, "ECCENTRICITY": 0.00045983, "INCLINATION": 4.6526, "RA_OF_ASC_NODE": 71.5937, "ARG_OF_PERICENTER": 201.692, "MEAN_ANOMALY": 5.8537, "EPHEMERIS_TYPE": 0, "CLASSIFICATION_TYPE": "U", "NORAD_CAT_ID": 39727, "ELEMENT_SET_NO": 999, "REV_AT_EPOCH": 4242, "BSTAR": 0, "MEAN_MOTION_DOT": -2.64e-06, "MEAN_MOTION_DDOT": 0}, "tle": {"line1": "1 39727U 14023A   25340.30282228 -.00000264  00000+0  00000+0 0  9990", "line2": "2 39727   4.6526  71.5937 0004598 201.6920   5.8537  1.00270891 42429"}}, "geometry": {"type": "Point", "coordinates": [-104.44985563341487, -0.34708557169311727]}}, {"type": "Feature", "properties": {"norad_id": 39741, "name": "GPS BIIF-6  (PRN 06)", "group": "gnss", "lat": 14.648396722704812, "lon": 149.04813885214242, "alt_km": 20275.27365191736, "timestamp": "2025-12-07T05:38:10.147080+00:00", "meta": {"OBJECT_NAME": "GPS BIIF-6  (PRN 06)", "OBJECT_ID": "2014-026A", "EPOCH": "2025-12-06T12:15:32.711328", "MEAN_MOTION": 2.00561644, "ECCENTRICITY": 0.00390117, "INCLINATION": 56.5859, "RA_OF_ASC_NODE": 339.0187, "ARG_OF_PERICENTER": 318.329, "MEAN_ANOMALY": 41.3876, "EPHEMERIS_TYPE": 0, "CLASSIFICATION_TYPE": "U", "NORAD_CAT_ID": 39741, "ELEMENT_SET_NO": 999, "REV_AT_EPOCH": 8467, "BSTAR": 0, "MEAN_MOTION_DOT": -7.9e-07, "MEAN_MOTION_DDOT": 0}, "tle": {"line1": "1 39741U 14026A   25340.51079527 -.00000079  00000+0  00000+0 0  9992", "line2": "2 39741  56.5859 339.0187 0039011 318.3290  41.3876  2.00561644 84677"}}, "geometry": {"type": "Point", "coordinates": [149.04813885214242, 14.648396722704812]}}, {"type": "Feature", "properties": {"norad_id": 40001, "name": "COSMOS 2500 (755)", "group": "gnss", "lat": 65.20773356949952, "lon": 56.40406493028822, "alt_km": 19135.12715844825, "timestamp": "2025-12-07T05:38:10.147108+00:00", "meta": {"OBJECT_NAME": "COSMOS 2500 (755)", "OBJECT_ID": "2014-032A", "EPOCH": "2025-12-06T04:12:43.488576", "MEAN_MOTION": 2.13105869, "ECCENTRICITY": 0.00082176, "INCLINATION": 65.3471, "RA_OF_ASC_NODE": 320.256, "ARG_OF_PERICENTER": 219.1837, "MEAN_ANOMALY": 140.7512, "EPHEMERIS_TYPE": 0, "CLASSIFICATION_TYPE": "U", "NORAD_CAT_ID": 40001, "ELEMENT_SET_NO": 999, "REV_AT_EPOCH": 8934, "BSTAR": 0, "MEAN_MOTION_DOT": -4.9e-07, "MEAN_MOTION_DDOT": 0}, "tle": {"line1": "1 40001U 14032A   25340.17550334 -.00000049  00000+0  00000+0 0  9999", "line2": "2 40001  65.3471 320.2560 0008217 219.1837 140.7512  2.13105869 89349"}}, "geometry": {"type": "Point", "coordinates": [56.40406493028822, 65.20773356949952]}}, {"type": "Feature", "properties": {"norad_id": 40105, "name": "GPS BIIF-7  (PRN 09)", "group": "gnss", "lat": 54.107721932431346, "lon": -157.4214189429698, "alt_km": 20093.182807914483, "timestamp": "2025-12-07T05:38:10.147133+00:00", "meta": {"OBJECT_NAME": "GPS BIIF-7  (PRN 09)", "OBJECT_ID": "2014-045A", "EPOCH": "2025-12-05T14:26:16.975968", "MEAN_MOTION": 2.00571979, "ECCENTRICITY": 0.00328896, "INCLINATION": 55.2248, "RA_OF_ASC_NODE": 96.1837, "ARG_OF_PERICENTER": 119.6741, "MEAN_ANOMALY": 240.6258, "EPHEMERIS_TYPE": 0, "CLASSIFICATION_TYPE": "U", "NORAD_CAT_ID": 40105, "ELEMENT_SET_NO": 999, "REV_AT_EPOCH": 8219, "BSTAR": 0, "MEAN_MOTION_DOT": -1.2e-07, "MEAN_MOTION_DDOT": 0}, "tle": {"line1": "1 40105U 14045A   25339.60158537 -.00000012  00000+0  00000+0 0  9993", "line2": "2 40105  55.2248  96.1837 0032889 119.6741 240.6258  2.00571979 82198"}}, "geometry": {"type": "Point", "coordinates": [-157.4214189429698, 54.107721932431346]}}, {"type": "Feature", "properties": {"norad_id": 40128, "name": "GSAT0201 (GALILEO 5)", "group": "gnss", "lat": 17.91685846958678, "lon": 85.00719495328292, "alt_km": 17111.897935780846, "timestamp": "2025-12-07T05:38:10.147154+00:00", "meta": {"OBJECT_NAME": "GSAT0201 (GALILEO 5)", "OBJECT_ID": "2014-050A", "EPOCH": "2025-12-03T05:25:23.717280", "MEAN_MOTION": 1.85519443, "ECCENTRICITY": 0.16470313, "INCLINATION": 49.088, "RA_OF_ASC_NODE": 281.4514, "ARG_OF_PERICENTER": 171.9194, "MEAN_ANOMALY": 191.1354, "EPHEMERIS_TYPE": 0, "CLASSIFICATION_TYPE": "U", "NORAD_CAT_ID": 40128, "ELEMENT_SET_NO": 999, "REV_AT_EPOCH": 7468, "BSTAR": 0, "MEAN_MOTION_DOT": -5.9e-07, "MEAN_MOTION_DDOT": 0}, "tle": {"line1": "1 40128U 14050A   25337.22596895 -.00000059  00000+0  00000+0 0  9994", "line2": "2 40128  49.0880 281.4514 1647031 171.9194 191.1354  1.85519443 74684"}}, "geometry": {"type": "Point", "coordinates": [85.00719495328292, 17.91685846958678]}}, {"type": "Feature", "properties": {"norad_id": 40129, "name": "GSAT0202 (GALILEO 6)", "group": "gnss", "lat": -7.447532781158371, "lon": -86.14462361647598, "alt_km": 26209.92135055745, "timestamp": "2025-12-07T05:38:10.147172+00:00", "meta": {"OBJECT_NAME": "GSAT0202 (GALILEO 6)", "OBJECT_ID": "2014-050B", "EPOCH": "2025-12-06T04:15:08.981856", "MEAN_MOTION": 1.85520222, "ECCENTRICITY": 0.16479377, "INCLINATION": 49.1003, "RA_OF_ASC_NODE": 280.4147, "ARG_OF_PERICENTER": 172.7832, "MEAN_ANOMALY": 189.9608, "EPHEMERIS_TYPE": 0, "CLASSIFICATION_TYPE": "U", "NORAD_CAT_ID": 40129, "ELEMENT_SET_NO": 999, "REV_AT_EPOCH": 7690, "BSTAR": 0, "MEAN_MOTION_DOT": -5.4e-07, "MEAN_MOTION_DDOT": 0}, "tle": {"line1": "1 40129U 14050B   25340.17718729 -.00000054  00000+0  00000+0 0  9990", "line2": "2 40129  49.1003 280.4147 1647937 172.7832 189.9608  1.85520222 76908"}}, "geometry": {"type": "Point", "coordinates": [-86.14462361647598, -7.447532781158371]}}, {"type": "Feature", "properties": {"norad_id": 40269, "name": "IRNSS-1C", "group": "gnss", "lat": 2.881557127441044, "lon": -116.01832613929781, "alt_km": 35851.062404447184, "timestamp": "2025-12-07T05:38:10.147191+00:00", "meta": {"OBJECT_NAME": "IRNSS-1C", "OBJECT_ID": "2014-061A", "EPOCH": "2025-12-06T08:55:24.329568", "MEAN_MOTION": 1.00268749, "ECCENTRICITY": 0.00178377, "INCLINATION": 6.0247, "RA_OF_ASC_NODE": 92.7497, "ARG_OF_PERICENTER": 2.5981, "MEAN_ANOMALY": 196.859, "EPHEMERIS_TYPE": 0, "CLASSIFICATION_TYPE": "U", "NORAD_CAT_ID": 40269, "ELEMENT_SET_NO": 999, "REV_AT_EPOCH": 4075, "BSTAR": 0, "MEAN_MOTION_DOT": -1.56e-06, "MEAN_MOTION_DDOT": 0}, "tle": {"line1": "1 40269U 14061A   25340.37180937 -.00000156  00000+0  00000+0 0  9996", "line2": "2 40269   6.0247  92.7497 0017837   2.5981 196.8590  1.00268749 40752"}}, "geometry": {"type": "Point", "coordinates": [-116.01832613929781, 2.881557127441044]}}, {"type": "Feature", "properties": {"norad_id": 40294, "name": "GPS BIIF-8  (PRN 03)", "group": "gnss", "lat": -7.545563544840789, "lon": -136.66067191373384, "alt_km": 20262.91559814358, "timestamp": "2025-12-07T05:38:10.147214+00:00", "meta": {"OBJECT_NAME": "GPS BIIF-8  (PRN 03)", "OBJECT_ID": "2014-068A", "EPOCH": "2025-12-05T23:27:53.798400", "MEAN_MOTION": 2.00564264, "ECCENTRICITY": 0.00608121, "INCLINATION": 56.8528, "RA_OF_ASC_NODE": 38.4077, "ARG_OF_PERICENTER": 69.3337, "MEAN_ANOMALY": 291.3749, "EPHEMERIS_TYPE": 0, "CLASSIFICATION_TYPE": "U", "NORAD_CAT_ID": 40294, "ELEMENT_SET_NO": 999, "REV_AT_EPOCH": 8133, "BSTAR": 0, "MEAN_MOTION_DOT": -6.8e-07, "MEAN_MOTION_DDOT": 0}, "tle": {"line1": "1 40294U 14068A   25339.97770600 -.00000068  00000+0  00000+0 0  9999", "line2": "2 40294  56.8528  38.4077 0060812  69.3337 291.3749  2.00564264 81331"}}, "geometry": {"type": "Point", "coordinates": [-136.66067191373384, -7.545563544840789]}}]}